CCSDS_OMM_VERS = 2.0
CREATION_DATE  = 
ORIGINATOR     = 

OBJECT_NAME    = STARLINK-36336
OBJECT_ID      = 2026-035Y
CENTER_NAME    = EARTH
REF_FRAME      = TEME
TIME_SYSTEM    = UTC
MEAN_ELEMENT_THEORY = SGP/SGP4

EPOCH          = 2026-02-28T22:00:01.999584
MEAN_MOTION    = 16.07586734
ECCENTRICITY   = .00008914
INCLINATION    = 97.2782
RA_OF_ASC_NODE = 351.5457
ARG_OF_PERICENTER = 120.1125
MEAN_ANOMALY   = 121.9597

EPHEMERIS_TYPE = 0
CLASSIFICATION_TYPE = U
NORAD_CAT_ID   = 67901
ELEMENT_SET_NO = 999
REV_AT_EPOCH   = 239
BSTAR          = -.11361401E-2
MEAN_MOTION_DOT = -.901674E-2
MEAN_MOTION_DDOT = .29617742E-3

CCSDS_OMM_VERS = 2.0
CREATION_DATE  = 
ORIGINATOR     = 

OBJECT_NAME    = STARLINK-36876
OBJECT_ID      = 2026-035Z
CENTER_NAME    = EARTH
REF_FRAME      = TEME
TIME_SYSTEM    = UTC
MEAN_ELEMENT_THEORY = SGP/SGP4

EPOCH          = 2026-02-28T22:00:01.999584
MEAN_MOTION    = 16.07304532
ECCENTRICITY   = .0000964
INCLINATION    = 97.2787
RA_OF_ASC_NODE = 351.5439
ARG_OF_PERICENTER = 105.9331
MEAN_ANOMALY   = 130.9341

EPHEMERIS_TYPE = 0
CLASSIFICATION_TYPE = U
NORAD_CAT_ID   = 67902
ELEMENT_SET_NO = 999
REV_AT_EPOCH   = 234
BSTAR          = -.1170903E-2
MEAN_MOTION_DOT = -.912948E-2
MEAN_MOTION_DDOT = .30199716E-3

CCSDS_OMM_VERS = 2.0
CREATION_DATE  = 
ORIGINATOR     = 

OBJECT_NAME    = STARLINK-36257
OBJECT_ID      = 2026-035AA
CENTER_NAME    = EARTH
REF_FRAME      = TEME
TIME_SYSTEM    = UTC
MEAN_ELEMENT_THEORY = SGP/SGP4

EPOCH          = 2026-02-28T22:00:01.999584
MEAN_MOTION    = 16.07417180
ECCENTRICITY   = .00008816
INCLINATION    = 97.2782
RA_OF_ASC_NODE = 351.5441
ARG_OF_PERICENTER = 102.2287
MEAN_ANOMALY   = 136.8510

EPHEMERIS_TYPE = 0
CLASSIFICATION_TYPE = U
NORAD_CAT_ID   = 67903
ELEMENT_SET_NO = 999
REV_AT_EPOCH   = 239
BSTAR          = -.11512109E-2
MEAN_MOTION_DOT = -.903986E-2
MEAN_MOTION_DDOT = .29695223E-3

CCSDS_OMM_VERS = 2.0
CREATION_DATE  = 
ORIGINATOR     = 

OBJECT_NAME    = STARLINK-36814
OBJECT_ID      = 2026-036A
CENTER_NAME    = EARTH
REF_FRAME      = TEME
TIME_SYSTEM    = UTC
MEAN_ELEMENT_THEORY = SGP/SGP4

EPOCH          = 2026-02-28T22:00:01.999584
MEAN_MOTION    = 15.91195041
ECCENTRICITY   = .00016043
INCLINATION    = 42.9960
RA_OF_ASC_NODE = 303.6942
ARG_OF_PERICENTER = 268.4855
MEAN_ANOMALY   = 293.9075

EPHEMERIS_TYPE = 0
CLASSIFICATION_TYPE = U
NORAD_CAT_ID   = 67904
ELEMENT_SET_NO = 999
REV_AT_EPOCH   = 223
BSTAR          = -.51055356E-2
MEAN_MOTION_DOT = -.167681E-1
MEAN_MOTION_DDOT = .77287555E-3

CCSDS_OMM_VERS = 2.0
CREATION_DATE  = 
ORIGINATOR     = 

OBJECT_NAME    = STARLINK-36729
OBJECT_ID      = 2026-036B
CENTER_NAME    = EARTH
REF_FRAME      = TEME
TIME_SYSTEM    = UTC
MEAN_ELEMENT_THEORY = SGP/SGP4

EPOCH          = 2026-02-28T22:00:01.999584
MEAN_MOTION    = 15.91351345
ECCENTRICITY   = .00016359
INCLINATION    = 42.9957
RA_OF_ASC_NODE = 303.6881
ARG_OF_PERICENTER = 273.9625
MEAN_ANOMALY   = 290.6640

EPHEMERIS_TYPE = 0
CLASSIFICATION_TYPE = U
NORAD_CAT_ID   = 67905
ELEMENT_SET_NO = 999
REV_AT_EPOCH   = 223
BSTAR          = -.49522688E-2
MEAN_MOTION_DOT = -.1640114E-1
MEAN_MOTION_DDOT = .74311415E-3

CCSDS_OMM_VERS = 2.0
CREATION_DATE  = 
ORIGINATOR     = 

OBJECT_NAME    = STARLINK-36763
OBJECT_ID      = 2026-036C
CENTER_NAME    = EARTH
REF_FRAME      = TEME
TIME_SYSTEM    = UTC
MEAN_ELEMENT_THEORY = SGP/SGP4

EPOCH          = 2026-02-28T22:00:01.999584
MEAN_MOTION    = 15.91520158
ECCENTRICITY   = .00015366
INCLINATION    = 42.9958
RA_OF_ASC_NODE = 303.6821
ARG_OF_PERICENTER = 276.1449
MEAN_ANOMALY   = 290.8475

EPHEMERIS_TYPE = 0
CLASSIFICATION_TYPE = U
NORAD_CAT_ID   = 67906
ELEMENT_SET_NO = 999
REV_AT_EPOCH   = 223
BSTAR          = -.48879966E-2
MEAN_MOTION_DOT = -.1633082E-1
MEAN_MOTION_DDOT = .73845752E-3

CCSDS_OMM_VERS = 2.0
CREATION_DATE  = 
ORIGINATOR     = 

OBJECT_NAME    = STARLINK-36742
OBJECT_ID      = 2026-036D
CENTER_NAME    = EARTH
REF_FRAME      = TEME
TIME_SYSTEM    = UTC
MEAN_ELEMENT_THEORY = SGP/SGP4

EPOCH          = 2026-02-28T22:00:01.999584
MEAN_MOTION    = 15.91683794
ECCENTRICITY   = .0001604
INCLINATION    = 42.9958
RA_OF_ASC_NODE = 303.6767
ARG_OF_PERICENTER = 268.4440
MEAN_ANOMALY   = 300.7312

EPHEMERIS_TYPE = 0
CLASSIFICATION_TYPE = U
NORAD_CAT_ID   = 67907
ELEMENT_SET_NO = 999
REV_AT_EPOCH   = 223
BSTAR          = -.47910635E-2
MEAN_MOTION_DOT = -.1614571E-1
MEAN_MOTION_DDOT = .72426554E-3

CCSDS_OMM_VERS = 2.0
CREATION_DATE  = 
ORIGINATOR     = 

OBJECT_NAME    = STARLINK-36827
OBJECT_ID      = 2026-036E
CENTER_NAME    = EARTH
REF_FRAME      = TEME
TIME_SYSTEM    = UTC
MEAN_ELEMENT_THEORY = SGP/SGP4

EPOCH          = 2026-02-28T22:00:01.999584
MEAN_MOTION    = 15.91848070
ECCENTRICITY   = .00016207
INCLINATION    = 42.9959
RA_OF_ASC_NODE = 303.6705
ARG_OF_PERICENTER = 273.1366
MEAN_ANOMALY   = 298.5714

EPHEMERIS_TYPE = 0
CLASSIFICATION_TYPE = U
NORAD_CAT_ID   = 67908
ELEMENT_SET_NO = 999
REV_AT_EPOCH   = 223
BSTAR          = -.47572946E-2
MEAN_MOTION_DOT = -.1616891E-1
MEAN_MOTION_DDOT = .72733634E-3

CCSDS_OMM_VERS = 2.0
CREATION_DATE  = 
ORIGINATOR     = 

OBJECT_NAME    = STARLINK-36822
OBJECT_ID      = 2026-036F
CENTER_NAME    = EARTH
REF_FRAME      = TEME
TIME_SYSTEM    = UTC
MEAN_ELEMENT_THEORY = SGP/SGP4

EPOCH          = 2026-02-28T22:00:01.999584
MEAN_MOTION    = 15.92008656
ECCENTRICITY   = .00015631
INCLINATION    = 42.9961
RA_OF_ASC_NODE = 303.6645
ARG_OF_PERICENTER = 274.0636
MEAN_ANOMALY   = 300.0067

EPHEMERIS_TYPE = 0
CLASSIFICATION_TYPE = U
NORAD_CAT_ID   = 67909
ELEMENT_SET_NO = 999
REV_AT_EPOCH   = 223
BSTAR          = -.46923329E-2
MEAN_MOTION_DOT = -.1608278E-1
MEAN_MOTION_DDOT = .72134196E-3

CCSDS_OMM_VERS = 2.0
CREATION_DATE  = 
ORIGINATOR     = 

OBJECT_NAME    = STARLINK-36847
OBJECT_ID      = 2026-036G
CENTER_NAME    = EARTH
REF_FRAME      = TEME
TIME_SYSTEM    = UTC
MEAN_ELEMENT_THEORY = SGP/SGP4

EPOCH          = 2026-02-28T22:00:01.999584
MEAN_MOTION    = 15.92169216
ECCENTRICITY   = .00016918
INCLINATION    = 42.9961
RA_OF_ASC_NODE = 303.6584
ARG_OF_PERICENTER = 271.5465
MEAN_ANOMALY   = 304.9154

EPHEMERIS_TYPE = 0
CLASSIFICATION_TYPE = U
NORAD_CAT_ID   = 67910
ELEMENT_SET_NO = 999
REV_AT_EPOCH   = 223
BSTAR          = -.46372807E-2
MEAN_MOTION_DOT = -.1602858E-1
MEAN_MOTION_DDOT = .71799363E-3

CCSDS_OMM_VERS = 2.0
CREATION_DATE  = 
ORIGINATOR     = 

OBJECT_NAME    = STARLINK-36736
OBJECT_ID      = 2026-036H
CENTER_NAME    = EARTH
REF_FRAME      = TEME
TIME_SYSTEM    = UTC
MEAN_ELEMENT_THEORY = SGP/SGP4

EPOCH          = 2026-02-28T22:00:01.999584
MEAN_MOTION    = 15.92330130
ECCENTRICITY   = .00015401
INCLINATION    = 42.9959
RA_OF_ASC_NODE = 303.6521
ARG_OF_PERICENTER = 274.3265
MEAN_ANOMALY   = 304.5289

EPHEMERIS_TYPE = 0
CLASSIFICATION_TYPE = U
NORAD_CAT_ID   = 67911
ELEMENT_SET_NO = 999
REV_AT_EPOCH   = 223
BSTAR          = -.45949081E-2
MEAN_MOTION_DOT = -.1601584E-1
MEAN_MOTION_DDOT = .7180663E-3

CCSDS_OMM_VERS = 2.0
CREATION_DATE  = 
ORIGINATOR     = 

OBJECT_NAME    = STARLINK-36676
OBJECT_ID      = 2026-036J
CENTER_NAME    = EARTH
REF_FRAME      = TEME
TIME_SYSTEM    = UTC
MEAN_ELEMENT_THEORY = SGP/SGP4

EPOCH          = 2026-02-28T22:00:01.999584
MEAN_MOTION    = 15.92485379
ECCENTRICITY   = .0001576
INCLINATION    = 42.9961
RA_OF_ASC_NODE = 303.6469
ARG_OF_PERICENTER = 272.4712
MEAN_ANOMALY   = 308.6111

EPHEMERIS_TYPE = 0
CLASSIFICATION_TYPE = U
NORAD_CAT_ID   = 67912
ELEMENT_SET_NO = 999
REV_AT_EPOCH   = 223
BSTAR          = -.45200047E-2
MEAN_MOTION_DOT = -.1588489E-1
MEAN_MOTION_DDOT = .7083712E-3

