STARLINK-36336          
1 67901U 26035Y   26059.91668981 -.00901674  29618-3 -11361-2 0  9991
2 67901  97.2782 351.5457 0000891 120.1125 121.9597 16.07586734  2395
STARLINK-36876          
1 67902U 26035Z   26059.91668981 -.00912948  30200-3 -11709-2 0  9993
2 67902  97.2787 351.5439 0000964 105.9331 130.9341 16.07304532  2348
STARLINK-36257          
1 67903U 26035AA  26059.91668981 -.00903986  29695-3 -11512-2 0  9994
2 67903  97.2782 351.5441 0000881 102.2287 136.8510 16.07417180  2397
STARLINK-36814          
1 67904U 26036A   26059.91668981 -.01676810  77288-3 -51055-2 0  9997
2 67904  42.9960 303.6942 0001604 268.4855 293.9075 15.91195041  2232
STARLINK-36729          
1 67905U 26036B   26059.91668981 -.01640114  74311-3 -49523-2 0  9997
2 67905  42.9957 303.6881 0001635 273.9625 290.6640 15.91351345  2234
STARLINK-36763          
1 67906U 26036C   26059.91668981 -.01633082  73846-3 -48880-2 0  9991
2 67906  42.9958 303.6821 0001536 276.1449 290.8475 15.91520158  2237
STARLINK-36742          
1 67907U 26036D   26059.91668981 -.01614571  72427-3 -47911-2 0  9992
2 67907  42.9958 303.6767 0001604 268.4440 300.7312 15.91683794  2235
STARLINK-36827          
1 67908U 26036E   26059.91668981 -.01616891  72734-3 -47573-2 0  9995
2 67908  42.9959 303.6705 0001620 273.1366 298.5714 15.91848070  2237
STARLINK-36822          
1 67909U 26036F   26059.91668981 -.01608278  72134-3 -46923-2 0  9998
2 67909  42.9961 303.6645 0001563 274.0636 300.0067 15.92008656  2239
STARLINK-36847          
1 67910U 26036G   26059.91668981 -.01602858  71799-3 -46373-2 0  9993
2 67910  42.9961 303.6584 0001691 271.5465 304.9154 15.92169216  2237
STARLINK-36736          
1 67911U 26036H   26059.91668981 -.01601584  71807-3 -45949-2 0  9997
2 67911  42.9959 303.6521 0001540 274.3265 304.5289 15.92330130  2238
STARLINK-36676          
1 67912U 26036J   26059.91668981 -.01588489  70837-3 -45200-2 0  9998
2 67912  42.9961 303.6469 0001576 272.4712 308.6111 15.92485379  2233
